FENGYUN 1C DEB          
1 38508U 99025EST 17330.38473842  .00002155  00000-0  46427-3 0  9991
2 38508  98.7195  37.7074 0181174 276.1560  81.9019 14.49905190447478
